STARLINK-31424          
1 59247U 24049S   26068.28066430  .00001284  00000+0  56209-4 0  9997
2 59247  43.0004 142.3688 0001602 293.1719  66.8964 15.27569142112378
AL MUNTHER              
1 63240U 25052AG  26068.64540749  .00017933  00000+0  65015-3 0  9992
2 63240  97.4001 323.9152 0008027 130.7043 229.4895 15.28381521 54798
